OBJECT_NAME,OBJECT_ID,EPOCH,MEAN_MOTION,ECCENTRICITY,INCLINATION,RA_OF_ASC_NODE,ARG_OF_PERICENTER,MEAN_ANOMALY,EPHEMERIS_TYPE,CLASSIFICATION_TYPE,NORAD_CAT_ID,ELEMENT_SET_NO,REV_AT_EPOCH,BSTAR,MEAN_MOTION_DOT,MEAN_MOTION_DDOT
STARLINK-36072,2025-281J,2026-01-17T23:12:04.137120,15.27603797,.00009786,42.9972,270.3218,276.3729,83.7011,0,U,66856,999,842,.8458329E-3,.23103E-3,0
STARLINK-36083,2025-281K,2026-01-17T16:44:20.539680,15.27606860,.00012212,42.9987,271.7406,283.8357,76.2358,0,U,66857,999,838,.10452788E-2,.28637E-3,0
STARLINK-35118,2025-281L,2026-01-17T02:16:35.072832,15.27590302,.00011125,42.9961,274.9557,288.1653,71.9077,0,U,66858,999,829,.30643628E-3,.8183E-4,0
STARLINK-35646,2025-281M,2026-01-17T17:52:35.741568,15.27601998,.00001677,42.9927,271.2309,261.1113,98.9720,0,U,66859,999,839,.77021948E-3,.21008E-3,0
STARLINK-35987,2025-281N,2026-01-17T23:45:10.094688,15.27603615,.00019216,42.9959,269.6240,258.9900,101.0735,0,U,66860,999,843,.99841662E-3,.27334E-3,0
STARLINK-35991,2025-281P,2026-01-17T23:32:12.481728,15.27598186,.00014232,42.9989,269.5577,264.2888,95.7801,0,U,66861,999,843,.99843634E-3,.2733E-3,0
STARLINK-35974,2025-281Q,2026-01-18T00:03:39.796416,15.27594356,.00024489,43.0009,269.7239,282.0927,77.9650,0,U,66862,999,843,.62310625E-3,.16932E-3,0
STARLINK-36134,2025-281R,2026-01-17T23:17:25.235808,15.28251095,.00051576,42.9986,269.4789,126.4901,233.6426,0,U,66863,999,843,-.71657503E-3,-.20346E-3,0
STARLINK-36070,2025-281S,2026-01-17T22:00:03.000096,15.27589638,.00017573,43.0005,270.4691,270.3226,230.9367,0,U,66864,999,603,.11515211E-3,.2909E-4,0
STARLINK-36117,2025-281T,2026-01-17T23:30:03.124512,15.28438763,.00012494,42.9980,269.5447,265.4726,94.5983,0,U,66865,999,843,.98225642E-3,.27588E-3,0
STARLINK-36126,2025-281U,2026-01-17T16:57:18.841248,15.27585824,.00019983,42.9993,271.8065,277.0827,82.9797,0,U,66866,999,837,.6203016E-3,.1685E-3,0
STARLINK-36101,2025-281V,2026-01-17T23:08:22.265376,15.27594208,.00012732,42.9995,270.3020,280.5602,79.5106,0,U,66867,999,841,.6670591E-3,.18147E-3,0
STARLINK-36108,2025-281W,2026-01-17T23:02:49.151904,15.27598758,.00015608,42.9998,270.2703,275.1748,84.8926,0,U,66868,999,841,.10862317E-2,.29767E-3,0
STARLINK-36092,2025-281X,2026-01-17T16:36:56.752128,15.27603649,.00004892,42.9980,271.6970,264.8913,95.1882,0,U,66869,999,837,.11302754E-2,.30994E-3,0
STARLINK-36114,2025-281Y,2026-01-17T16:31:23.321568,15.27603957,.0001168,42.9978,271.6660,259.7650,100.3070,0,U,66870,999,837,.55401172E-3,.15025E-3,0
STARLINK-36095,2025-281Z,2026-01-17T10:09:12.913632,15.27601405,.00010478,42.9969,273.1153,276.0313,84.0419,0,U,66871,999,832,.509748E-3,.13801E-3,0
STARLINK-36082,2025-281AA,2026-01-17T17:54:28.570464,15.27520054,.00010548,42.9929,271.2390,237.5693,122.5057,0,U,66872,999,838,-.20259834E-3,-.5822E-4,0
STARLINK-36128,2025-281AB,2026-01-17T23:56:16.743264,15.27580054,.0000347,42.9976,269.6785,272.3544,87.7267,0,U,66873,999,837,.60163361E-3,.1633E-3,0
STARLINK-36129,2025-281AC,2026-01-18T00:05:30.733152,15.27618976,.00005963,42.9962,269.7289,243.2656,116.8134,0,U,66874,999,842,.74833468E-3,.20412E-3,0
STARLINK-36053,2025-281AD,2026-01-17T23:50:42.793440,15.27587717,.00013598,42.9962,269.6482,270.1236,89.9459,0,U,66875,999,837,.71405261E-3,.19444E-3,0
STARLINK-35702,2025-281AE,2026-01-18T00:00:00.065664,15.27549098,.00014839,42.9968,269.6991,256.1307,103.9379,0,U,66876,999,842,.6757849E-3,.18363E-3,0
STARLINK-35866,2025-283A,2026-01-17T22:15:15.907680,15.30209593,.00019936,53.1594,259.8517,78.1537,281.9688,0,U,66878,999,807,.63555974E-3,.18517E-3,0
STARLINK-35749,2025-283B,2026-01-17T23:32:36.382560,15.30192345,.00013136,53.1600,259.4758,91.8766,268.2385,0,U,66879,999,808,.40763741E-3,.1173E-3,0
STARLINK-35844,2025-283C,2026-01-17T22:06:08.650080,15.30201427,.00007943,53.1599,259.8109,99.9375,260.1715,0,U,66880,999,807,.8940668E-3,.26215E-3,0
STARLINK-35860,2025-283D,2026-01-17T23:23:29.309856,15.30192396,.0001278,53.1589,259.4358,88.6365,271.4782,0,U,66881,999,808,.35260825E-3,.10096E-3,0
STARLINK-35912,2025-283E,2026-01-17T23:08:27.172896,15.30207405,.00016044,53.1598,260.0810,83.1727,276.9456,0,U,66882,999,807,.94354464E-3,.27697E-3,0
STARLINK-35947,2025-283F,2026-01-17T21:31:21.445536,15.30189350,.0000907,53.1571,260.3721,71.0721,289.0378,0,U,66883,999,808,-.42308433E-4,-.1611E-4,0
STARLINK-36057,2025-283G,2026-01-17T22:56:17.742624,15.30200965,.00014028,53.1585,260.0291,95.7199,264.3962,0,U,66884,999,807,.38122251E-3,.10949E-3,0
STARLINK-35954,2025-283H,2026-01-17T21:26:47.897952,15.30191798,.00012035,53.1582,260.3510,83.0434,277.0703,0,U,66885,999,806,-.14538219E-4,-.79E-5,0
STARLINK-35900,2025-283J,2026-01-17T22:45:39.295872,15.30183426,.00012981,53.1583,259.9812,84.1810,275.9338,0,U,66886,999,807,.72734621E-3,.21233E-3,0
