STARLINK-36072          
1 66856U 25281J   26017.96671455  .00023103  00000+0  84583-3 0  9997
2 66856  42.9972 270.3218 0000978 276.3729  83.7011 15.27603797  8420
STARLINK-36083          
1 66857U 25281K   26017.69745995  .00028637  00000+0  10453-2 0  9990
2 66857  42.9987 271.7406 0001221 283.8357  76.2358 15.27606860  8383
STARLINK-35118          
1 66858U 25281L   26017.09485038  .00008183  00000+0  30644-3 0  9993
2 66858  42.9961 274.9557 0001112 288.1653  71.9077 15.27590302  8297
STARLINK-35646          
1 66859U 25281M   26017.74485812  .00021008  00000+0  77022-3 0  9998
2 66859  42.9927 271.2309 0000167 261.1113  98.9720 15.27601998  8395
STARLINK-35987          
1 66860U 25281N   26017.98970017  .00027334  00000+0  99842-3 0  9994
2 66860  42.9959 269.6240 0001921 258.9900 101.0735 15.27603615  8439
STARLINK-35991          
1 66861U 25281P   26017.98070002  .00027330  00000+0  99844-3 0  9998
2 66861  42.9989 269.5577 0001423 264.2888  95.7801 15.27598186  8436
STARLINK-35974          
1 66862U 25281Q   26018.00254394  .00016932  00000+0  62311-3 0  9996
2 66862  43.0009 269.7239 0002448 282.0927  77.9650 15.27594356  8438
STARLINK-36134          
1 66863U 25281R   26017.97043097 -.00020346  00000+0 -71658-3 0  9998
2 66863  42.9986 269.4789 0005157 126.4901 233.6426 15.28251095  8434
STARLINK-36070          
1 66864U 25281S   26017.91670139  .00002909  00000+0  11515-3 0  9995
2 66864  43.0005 270.4691 0001757 270.3226 230.9367 15.27589638  6038
STARLINK-36117          
1 66865U 25281T   26017.97920283  .00027588  00000+0  98226-3 0  9994
2 66865  42.9980 269.5447 0001249 265.4726  94.5983 15.28438763  8430
STARLINK-36126          
1 66866U 25281U   26017.70646807  .00016850  00000+0  62030-3 0  9997
2 66866  42.9993 271.8065 0001998 277.0827  82.9797 15.27585824  8376
STARLINK-36101          
1 66867U 25281V   26017.96414659  .00018147  00000+0  66706-3 0  9999
2 66867  42.9995 270.3020 0001273 280.5602  79.5106 15.27594208  8417
STARLINK-36108          
1 66868U 25281W   26017.96029111  .00029767  00000+0  10862-2 0  9996
2 66868  42.9998 270.2703 0001560 275.1748  84.8926 15.27598758  8411
STARLINK-36092          
1 66869U 25281X   26017.69232352  .00030994  00000+0  11303-2 0  9995
2 66869  42.9980 271.6970 0000489 264.8913  95.1882 15.27603649  8379
STARLINK-36114          
1 66870U 25281Y   26017.68846437  .00015025  00000+0  55401-3 0  9997
2 66870  42.9978 271.6660 0001168 259.7650 100.3070 15.27603957  8370
STARLINK-36095          
1 66871U 25281Z   26017.42306613  .00013801  00000+0  50975-3 0  9998
2 66871  42.9969 273.1153 0001047 276.0313  84.0419 15.27601405  8325
STARLINK-36082          
1 66872U 25281AA  26017.74616401 -.00005822  00000+0 -20260-3 0  9993
2 66872  42.9929 271.2390 0001054 237.5693 122.5057 15.27520054  8387
STARLINK-36128          
1 66873U 25281AB  26017.99741601  .00016330  00000+0  60163-3 0  9992
2 66873  42.9976 269.6785 0000347 272.3544  87.7267 15.27580054  8375
STARLINK-36129          
1 66874U 25281AC  26018.00382793  .00020412  00000+0  74833-3 0  9994
2 66874  42.9962 269.7289 0000596 243.2656 116.8134 15.27618976  8426
STARLINK-36053          
1 66875U 25281AD  26017.99355085  .00019444  00000+0  71405-3 0  9991
2 66875  42.9962 269.6482 0001359 270.1236  89.9459 15.27587717  8374
STARLINK-35702          
1 66876U 25281AE  26018.00000076  .00018363  00000+0  67578-3 0  9997
2 66876  42.9968 269.6991 0001483 256.1307 103.9379 15.27549098  8421
STARLINK-35866          
1 66878U 25283A   26017.92726745  .00018517  00000+0  63556-3 0  9992
2 66878  53.1594 259.8517 0001993  78.1537 281.9688 15.30209593  8078
STARLINK-35749          
1 66879U 25283B   26017.98097665  .00011730  00000+0  40764-3 0  9997
2 66879  53.1600 259.4758 0001313  91.8766 268.2385 15.30192345  8081
STARLINK-35844          
1 66880U 25283C   26017.92093345  .00026215  00000+0  89407-3 0  9995
2 66880  53.1599 259.8109 0000794  99.9375 260.1715 15.30201427  8070
STARLINK-35860          
1 66881U 25283D   26017.97464479  .00010096  00000+0  35261-3 0  9990
2 66881  53.1589 259.4358 0001278  88.6365 271.4782 15.30192396  8088
STARLINK-35912          
1 66882U 25283E   26017.96420339  .00027697  00000+0  94354-3 0  9990
2 66882  53.1598 260.0810 0001604  83.1727 276.9456 15.30207405  8070
STARLINK-35947          
1 66883U 25283F   26017.89677599 -.00001611  00000+0 -42308-4 0  9998
2 66883  53.1571 260.3721 0000907  71.0721 289.0378 15.30189350  8088
STARLINK-36057          
1 66884U 25283G   26017.95576091  .00010949  00000+0  38122-3 0  9991
2 66884  53.1585 260.0291 0001402  95.7199 264.3962 15.30200965  8076
STARLINK-35954          
1 66885U 25283H   26017.89360993 -.00000790  00000+0 -14538-4 0  9998
2 66885  53.1582 260.3510 0001203  83.0434 277.0703 15.30191798  8068
STARLINK-35900          
1 66886U 25283J   26017.94837148  .00021233  00000+0  72735-3 0  9991
2 66886  53.1583 259.9812 0001298  84.1810 275.9338 15.30183426  8074
